{"type": "FeatureCollection", "features": [ {"type": "Feature", "properties": {"norad_id": 32260, "name": "GPS BIIRM-4 (PRN 15)", "group": "gnss", "lat": -52.33680204885159, "lon": 17.47864512040514, "alt_km": 20604.72822631886, "timestamp": "2025-12-08T15:42:50.032496+00:00", "meta": {"OBJECT_NAME": "GPS BIIRM-4 (PRN 15)", "OBJECT_ID": "2007-047A", "EPOCH": "2025-12-07T18:25:34.370688", "MEAN_MOTION": 2.00564615, "ECCENTRICITY": 0.01643014, "INCLINATION": 53.9519, "RA_OF_ASC_NODE": 87.9639, "ARG_OF_PERICENTER": 85.1876, "MEAN_ANOMALY": 276.6737, "EPHEMERIS_TYPE": 0, "CLASSIFICATION_TYPE": "U", "NORAD_CAT_ID": 32260, "ELEMENT_SET_NO": 999, "REV_AT_EPOCH": 13297, "BSTAR": 0, "MEAN_MOTION_DOT": -1.8e-07, "MEAN_MOTION_DDOT": 0}, "tle": {"line1": "1 32260U 07047A   25341.76775892 -.00000018  00000+0  00000+0 0  9995", "line2": "2 32260  53.9519  87.9639 0164301  85.1876 276.6737  2.00564615132978"}}, "geometry": {"type": "Point", "coordinates": [17.47864512040514, -52.33680204885159]}}, {"type": "Feature", "properties": {"norad_id": 32275, "name": "COSMOS 2433 (720)", "group": "gnss", "lat": -16.207336428781527, "lon": 149.88148806403618, "alt_km": 19124.55991549609, "timestamp": "2025-12-08T15:42:50.032508+00:00", "meta": {"OBJECT_NAME": "COSMOS 2433 (720)", "OBJECT_ID": "2007-052A", "EPOCH": "2025-12-07T22:15:39.436992", "MEAN_MOTION": 2.13103936, "ECCENTRICITY": 0.00054366, "INCLINATION": 65.6859, "RA_OF_ASC_NODE": 322.3673, "ARG_OF_PERICENTER": 253.7081, "MEAN_ANOMALY": 106.2283, "EPHEMERIS_TYPE": 0, "CLASSIFICATION_TYPE": "U", "NORAD_CAT_ID": 32275, "ELEMENT_SET_NO": 999, "REV_AT_EPOCH": 14098, "BSTAR": 0, "MEAN_MOTION_DOT": -4.9e-07, "MEAN_MOTION_DDOT": 0}, "tle": {"line1": "1 32275U 07052A   25341.92753978 -.00000049  00000+0  00000+0 0  9990", "line2": "2 32275  65.6859 322.3673 0005436 253.7081 106.2283  2.13103936140982"}}, "geometry": {"type": "Point", "coordinates": [149.88148806403618, -16.207336428781527]}}, {"type": "Feature", "properties": {"norad_id": 32276, "name": "COSMOS 2432 (719)", "group": "gnss", "lat": 33.83657727812318, "lon": 124.82909080520488, "alt_km": 19154.328504625457, "timestamp": "2025-12-08T15:42:50.032521+00:00", "meta": {"OBJECT_NAME": "COSMOS 2432 (719)", "OBJECT_ID": "2007-052B", "EPOCH": "2025-12-08T02:14:19.806720", "MEAN_MOTION": 2.13103088, "ECCENTRICITY": 0.00112877, "INCLINATION": 65.7017, "RA_OF_ASC_NODE": 322.4859, "ARG_OF_PERICENTER": 312.3782, "MEAN_ANOMALY": 119.1922, "EPHEMERIS_TYPE": 0, "CLASSIFICATION_TYPE": "U", "NORAD_CAT_ID": 32276, "ELEMENT_SET_NO": 999, "REV_AT_EPOCH": 14101, "BSTAR": 0, "MEAN_MOTION_DOT": -4.9e-07, "MEAN_MOTION_DDOT": 0}, "tle": {"line1": "1 32276U 07052B   25342.09328480 -.00000049  00000+0  00000+0 0  9996", "line2": "2 32276  65.7017 322.4859 0011287 312.3782 119.1922  2.13103088141014"}}, "geometry": {"type": "Point", "coordinates": [124.82909080520488, 33.83657727812318]}}, {"type": "Feature", "properties": {"norad_id": 32384, "name": "GPS BIIRM-5 (PRN 29)", "group": "gnss", "lat": 39.67141545034546, "lon": -43.01094674292348, "alt_km": 20207.40311300058, "timestamp": "2025-12-08T15:42:50.032532+00:00", "meta": {"OBJECT_NAME": "GPS BIIRM-5 (PRN 29)", "OBJECT_ID": "2007-062A", "EPOCH": "2025-12-08T07:46:47.506944", "MEAN_MOTION": 2.00576984, "ECCENTRICITY": 0.00322211, "INCLINATION": 55.1861, "RA_OF_ASC_NODE": 281.823, "ARG_OF_PERICENTER": 162.5952, "MEAN_ANOMALY": 10.0568, "EPHEMERIS_TYPE": 0, "CLASSIFICATION_TYPE": "U", "NORAD_CAT_ID": 32384, "ELEMENT_SET_NO": 999, "REV_AT_EPOCH": 13168, "BSTAR": 0, "MEAN_MOTION_DOT": -4.5e-07, "MEAN_MOTION_DDOT": 0}, "tle": {"line1": "1 32384U 07062A   25342.32416096 -.00000045  00000+0  00000+0 0  9990", "line2": "2 32384  55.1861 281.8230 0032221 162.5952  10.0568  2.00576984131682"}}, "geometry": {"type": "Point", "coordinates": [-43.01094674292348, 39.67141545034546]}}, {"type": "Feature", "properties": {"norad_id": 32393, "name": "COSMOS 2434 (721)", "group": "gnss", "lat": 64.25436660383687, "lon": -75.24262893873015, "alt_km": 19112.14588720794, "timestamp": "2025-12-08T15:42:50.032544+00:00", "meta": {"OBJECT_NAME": "COSMOS 2434 (721)", "OBJECT_ID": "2007-065A", "EPOCH": "2025-12-08T05:21:15.731136", "MEAN_MOTION": 2.13101228, "ECCENTRICITY": 0.00044814, "INCLINATION": 64.3148, "RA_OF_ASC_NODE": 198.3559, "ARG_OF_PERICENTER": 71.0536, "MEAN_ANOMALY": 46.2753, "EPHEMERIS_TYPE": 0, "CLASSIFICATION_TYPE": "U", "NORAD_CAT_ID": 32393, "ELEMENT_SET_NO": 999, "REV_AT_EPOCH": 13970, "BSTAR": 0, "MEAN_MOTION_DOT": 5e-07, "MEAN_MOTION_DDOT": 0}, "tle": {"line1": "1 32393U 07065A   25342.22309874  .00000050  00000+0  00000+0 0  9992", "line2": "2 32393  64.3148 198.3559 0004481  71.0536  46.2753  2.13101228139704"}}, "geometry": {"type": "Point", "coordinates": [-75.24262893873015, 64.25436660383687]}}, {"type": "Feature", "properties": {"norad_id": 32395, "name": "COSMOS 2436 (723)", "group": "gnss", "lat": -36.60991823706635, "lon": 39.35830320595815, "alt_km": 19173.085871588468, "timestamp": "2025-12-08T15:42:50.032556+00:00", "meta": {"OBJECT_NAME": "COSMOS 2436 (723)", "OBJECT_ID": "2007-065C", "EPOCH": "2025-12-08T02:01:11.627904", "MEAN_MOTION": 2.13100022, "ECCENTRICITY": 0.00177472, "INCLINATION": 64.3236, "RA_OF_ASC_NODE": 198.4308, "ARG_OF_PERICENTER": 9.2257, "MEAN_ANOMALY": 134.6131, "EPHEMERIS_TYPE": 0, "CLASSIFICATION_TYPE": "U", "NORAD_CAT_ID": 32395, "ELEMENT_SET_NO": 999, "REV_AT_EPOCH": 13965, "BSTAR": 0, "MEAN_MOTION_DOT": 5.1e-07, "MEAN_MOTION_DDOT": 0}, "tle": {"line1": "1 32395U 07065C   25342.08416236  .00000051  00000+0  00000+0 0  9990", "line2": "2 32395  64.3236 198.4308 0017747   9.2257 134.6131  2.13100022139656"}}, "geometry": {"type": "Point", "coordinates": [39.35830320595815, -36.60991823706635]}}, {"type": "Feature", "properties": {"norad_id": 32711, "name": "GPS BIIRM-6 (PRN 07)", "group": "gnss", "lat": -17.58753229686109, "lon": 144.43646052655654, "alt_km": 20204.427883127762, "timestamp": "2025-12-08T15:42:50.032568+00:00", "meta": {"OBJECT_NAME": "GPS BIIRM-6 (PRN 07)", "OBJECT_ID": "2008-012A", "EPOCH": "2025-12-07T16:30:50.099904", "MEAN_MOTION": 2.00565328, "ECCENTRICITY": 0.02022386, "INCLINATION": 54.4764, "RA_OF_ASC_NODE": 157.5746, "ARG_OF_PERICENTER": 244.892, "MEAN_ANOMALY": 113.0048, "EPHEMERIS_TYPE": 0, "CLASSIFICATION_TYPE": "U", "NORAD_CAT_ID": 32711, "ELEMENT_SET_NO": 999, "REV_AT_EPOCH": 12991, "BSTAR": 0, "MEAN_MOTION_DOT": 5.7e-07, "MEAN_MOTION_DDOT": 0}, "tle": {"line1": "1 32711U 08012A   25341.68807986  .00000057  00000+0  00000+0 0  9992", "line2": "2 32711  54.4764 157.5746 0202238 244.8920 113.0048  2.00565328129917"}}, "geometry": {"type": "Point", "coordinates": [144.43646052655654, -17.58753229686109]}}, {"type": "Feature", "properties": {"norad_id": 35752, "name": "GPS BIIRM-8 (PRN 05)", "group": "gnss", "lat": -3.9367989905522283, "lon": 32.31063488284973, "alt_km": 20173.98099223248, "timestamp": "2025-12-08T15:42:50.032580+00:00", "meta": {"OBJECT_NAME": "GPS BIIRM-8 (PRN 05)", "OBJECT_ID": "2009-043A", "EPOCH": "2025-12-08T03:13:53.099904", "MEAN_MOTION": 2.00565854, "ECCENTRICITY": 0.00519295, "INCLINATION": 56.0878, "RA_OF_ASC_NODE": 34.9648, "ARG_OF_PERICENTER": 81.9835, "MEAN_ANOMALY": 258.3784, "EPHEMERIS_TYPE": 0, "CLASSIFICATION_TYPE": "U", "NORAD_CAT_ID": 35752, "ELEMENT_SET_NO": 999, "REV_AT_EPOCH": 11952, "BSTAR": 0, "MEAN_MOTION_DOT": -8e-07, "MEAN_MOTION_DDOT": 0}, "tle": {"line1": "1 35752U 09043A   25342.13464236 -.00000080  00000+0  00000+0 0  9990", "line2": "2 35752  56.0878  34.9648 0051929  81.9835 258.3784  2.00565854119522"}}, "geometry": {"type": "Point", "coordinates": [32.31063488284973, -3.9367989905522283]}}, {"type": "Feature", "properties": {"norad_id": 36111, "name": "COSMOS 2456 (730)", "group": "gnss", "lat": -55.519619328985215, "lon": -59.5544987156123, "alt_km": 19131.152338737844, "timestamp": "2025-12-08T15:42:50.032592+00:00", "meta": {"OBJECT_NAME": "COSMOS 2456 (730)", "OBJECT_ID": "2009-070A", "EPOCH": "2025-12-07T20:44:40.162272", "MEAN_MOTION": 2.13103432, "ECCENTRICITY": 0.00030434, "INCLINATION": 64.8974, "RA_OF_ASC_NODE": 77.5047, "ARG_OF_PERICENTER": 297.6461, "MEAN_ANOMALY": 61.5166, "EPHEMERIS_TYPE": 0, "CLASSIFICATION_TYPE": "U", "NORAD_CAT_ID": 36111, "ELEMENT_SET_NO": 999, "REV_AT_EPOCH": 12434, "BSTAR": 0, "MEAN_MOTION_DOT": -1.5e-07, "MEAN_MOTION_DDOT": 0}, "tle": {"line1": "1 36111U 09070A   25341.86435373 -.00000015  00000+0  00000+0 0  9997", "line2": "2 36111  64.8974  77.5047 0003043 297.6461  61.5166  2.13103432124345"}}, "geometry": {"type": "Point", "coordinates": [-59.5544987156123, -55.519619328985215]}}, {"type": "Feature", "properties": {"norad_id": 36112, "name": "COSMOS 2457 (733)", "group": "gnss", "lat": 13.24897718221703, "lon": 83.66360894342584, "alt_km": 19138.522124743864, "timestamp": "2025-12-08T15:42:50.032604+00:00", "meta": {"OBJECT_NAME": "COSMOS 2457 (733)", "OBJECT_ID": "2009-070B", "EPOCH": "2025-12-08T05:12:02.715840", "MEAN_MOTION": 2.13100811, "ECCENTRICITY": 0.0004735, "INCLINATION": 64.8829, "RA_OF_ASC_NODE": 77.3403, "ARG_OF_PERICENTER": 158.3782, "MEAN_ANOMALY": 240.2784, "EPHEMERIS_TYPE": 0, "CLASSIFICATION_TYPE": "U", "NORAD_CAT_ID": 36112, "ELEMENT_SET_NO": 999, "REV_AT_EPOCH": 12436, "BSTAR": 0, "MEAN_MOTION_DOT": -1.5e-07, "MEAN_MOTION_DDOT": 0}, "tle": {"line1": "1 36112U 09070B   25342.21669810 -.00000015  00000+0  00000+0 0  9993", "line2": "2 36112  64.8829  77.3403 0004735 158.3782 240.2784  2.13100811124369"}}, "geometry": {"type": "Point", "coordinates": [83.66360894342584, 13.24897718221703]}}]}